NORAD_CAT_ID,OBJECT_NAME,OBJECT_TYPE,EPOCH,MEAN_MOTION,ECCENTRICITY,INCLINATION,RA_OF_ASC_NODE,ARG_OF_PERICENTER,MEAN_ANOMALY,BSTAR,MEAN_MOTION_DOT,MEAN_MOTION_DDOT,TLE_LINE0,TLE_LINE1,TLE_LINE2,SEMIMAJOR_AXIS,PERIOD,APOGEE,PERIGEE,DECAYED
51981.0,STARLINK-3635,PAYLOAD,2022-12-26 09:53:00,15.08836178,0.0002223,53.215,248.2057,43.0855,317.0311,-4.8373e-05,-1.058e-05,0.0,0 STARLINK-3635,1 51981U 22025AB  22360.41181246 -.00001058  00000-0 -48373-4 0  9990,2 51981  53.2150 248.2057 0002223  43.0855 317.0311 15.08836178 44533,6917.892,95.438,541.295,538.219,0.0
51981.0,STARLINK-3635,PAYLOAD,2022-12-26 17:49:56,15.08831861,0.0002188,53.2148,246.7179,40.7677,319.3478,3.6448e-06,-2.3e-06,0.0,0 STARLINK-3635,1 51981U 22025AB  22360.74301617 -.00000230  00000-0  36448-5 0  9993,2 51981  53.2148 246.7179 0002188  40.7677 319.3478 15.08831861 45684,6917.905,95.438,541.284,538.257,0.0
51981.0,STARLINK-3635,PAYLOAD,2022-12-27 04:57:38,15.08834258,0.0002226,53.2151,244.636,41.1437,318.9723,-7.0037e-06,-4e-06,0.0,0 STARLINK-3635,1 51981U 22025AB  22361.20669758 -.00000400  00000-0 -70037-5 0  9990,2 51981  53.2151 244.6360 0002226  41.1437 318.9723 15.08834258 44656,6917.898,95.438,541.303,538.2230000000002,0.0
51981.0,STARLINK-3635,PAYLOAD,2022-12-28 01:37:38,15.08850363,0.0002218,53.2151,240.7704,41.4376,318.6784,0.0002284,3.35e-05,0.0,0 STARLINK-3635,1 51981U 22025AB  22362.06781212  .00003350  00000-0  22840-3 0  9997,2 51981  53.2151 240.7704 0002218  41.4376 318.6784 15.08850363 45886,6917.849,95.437,541.248,538.179,0.0
51981.0,STARLINK-3635,PAYLOAD,2022-12-28 19:06:53,15.08843976,0.0002189,53.2146,237.4992,40.3911,319.7243,0.00024874,3.673e-05,0.0,0 STARLINK-3635,1 51981U 22025AB  22362.79645471  .00003673  00000-0  24874-3 0  9990,2 51981  53.2146 237.4992 0002189  40.3911 319.7243 15.08843976 44896,6917.868,95.437,541.248,538.219,0.0
51981.0,STARLINK-3635,PAYLOAD,2022-12-29 01:28:25,15.08843045,7.11e-05,53.2143,236.3096,55.1706,304.9353,6.9265e-05,8.15e-06,0.0,0 STARLINK-3635,1 51981U 22025AB  22363.06140889  .00000815  00000-0  69265-4 0  9993,2 51981  53.2143 236.3096 0000711  55.1706 304.9353 15.08843045 46034,6917.871,95.437,540.2280000000002,539.244,0.0
51981.0,STARLINK-3635,PAYLOAD,2022-12-29 15:46:55,15.08819724,0.0002183,53.2145,233.6333,44.2808,315.8359,4.6898e-05,4.58e-06,0.0,0 STARLINK-3635,1 51981U 22025AB  22363.65759149  .00000458  00000-0  46898-4 0  9993,2 51981  53.2145 233.6333 0002183  44.2808 315.8359 15.08819724 46121,6917.941999999999,95.439,541.318,538.297,0.0
51981.0,STARLINK-3635,PAYLOAD,2022-12-30 01:19:14,15.08837566,0.0002171,53.215,231.8496,37.4658,322.6485,-0.00014767,-2.638e-05,0.0,0 STARLINK-3635,1 51981U 22025AB  22364.05502809 -.00002638  00000-0 -14767-3 0  9990,2 51981  53.2150 231.8496 0002171  37.4658 322.6485 15.08837566 46187,6917.888000000001,95.438,541.255,538.251,0.0
51981.0,STARLINK-3635,PAYLOAD,2022-12-30 15:37:42,15.08841491,0.000215,53.2154,229.1732,36.4136,323.7002,-3.65e-06,-3.46e-06,0.0,0 STARLINK-3635,1 51981U 22025AB  22364.65118406 -.00000346  00000-0 -36500-5 0  9997,2 51981  53.2154 229.1732 0002150  36.4136 323.7002 15.08841491 46270,6917.876,95.437,541.2280000000002,538.253,0.0
51981.0,STARLINK-3635,PAYLOAD,2022-12-31 07:31:33,15.08850688,0.0002213,53.2144,226.1995,39.9423,320.1732,0.00042254,6.445e-05,0.0,0 STARLINK-3635,1 51981U 22025AB  22365.31358062  .00006445  00000-0  42254-3 0  9990,2 51981  53.2144 226.1995 0002213  39.9423 320.1732 15.08850688 46374,6917.848000000001,95.437,541.244,538.182,0.0
51981.0,STARLINK-3635,PAYLOAD,2023-01-01 01:00:48,15.0883938,0.0002238,53.2144,222.9286,41.1571,318.959,0.00011184,1.492e-05,0.0,0 STARLINK-3635,1 51981U 22025AB  23001.04222390  .00001492  00000-0  11184-3 0  9997,2 51981  53.2144 222.9286 0002238  41.1571 318.9590 15.08839380 46482,6917.882,95.438,541.2959999999998,538.1990000000002,0.0
51981.0,STARLINK-3635,PAYLOAD,2023-01-01 13:43:52,15.08840357,0.0002292,53.2141,220.5498,43.2602,316.857,-0.00010606,-1.976e-05,0.0,0 STARLINK-3635,1 51981U 22025AB  23001.57214024 -.00001976  00000-0 -10606-3 0  9997,2 51981  53.2141 220.5498 0002292  43.2602 316.8570 15.08840357 45464,6917.879,95.438,541.33,538.159,0.0
51981.0,STARLINK-3635,PAYLOAD,2023-01-01 21:40:49,15.08829313,0.0002261,53.2148,219.063,43.395,316.722,-0.00025957,-4.416e-05,0.0,0 STARLINK-3635,1 51981U 22025AB  23001.90334666 -.00004416  00000-0 -25957-3 0  9996,2 51981  53.2148 219.0630 0002261  43.3950 316.7220 15.08829313 45511,6917.913000000001,95.438,541.342,538.214,0.0
51981.0,STARLINK-3635,PAYLOAD,2023-01-02 00:51:35,15.08830183,0.0002283,53.2149,218.4679,42.1954,317.9213,-0.00017752,-3.112e-05,0.0,0 STARLINK-3635,1 51981U 22025AB  23002.03582991 -.00003112  00000-0 -17752-3 0  9993,2 51981  53.2149 218.4679 0002283  42.1954 317.9213 15.08830183 46639,6917.91,95.438,541.355,538.196,0.0
51981.0,STARLINK-3635,PAYLOAD,2023-01-02 13:34:40,15.08848315,0.0002286,53.2147,216.0887,38.2557,321.8597,-0.00064121,-0.00010481,0.0,0 STARLINK-3635,1 51981U 22025AB  23002.56574168 -.00010481  00000-0 -64121-3 0  9997,2 51981  53.2147 216.0887 0002286  38.2557 321.8597 15.08848315 45612,6917.855,95.437,541.3009999999998,538.139,0.0
51981.0,STARLINK-3635,PAYLOAD,2023-01-02 15:10:04,15.08836793,0.0001825,53.2154,215.7913,32.5815,327.529,-7.0752e-05,-1.414e-05,0.0,0 STARLINK-3635,1 51981U 22025AB  23002.63199304 -.00001414  00000-0 -70752-4 0  9994,2 51981  53.2154 215.7913 0001825  32.5815 327.5290 15.08836793 45629,6917.89,95.438,541.018,538.493,0.0
51981.0,STARLINK-3635,PAYLOAD,2023-01-03 07:03:55,15.0883337,0.0002283,53.2155,212.8176,43.5832,316.534,0.00012393,1.684e-05,0.0,0 STARLINK-3635,1 51981U 22025AB  23003.29439738  .00001684  00000-0  12393-3 0  9998,2 51981  53.2155 212.8176 0002283  43.5832 316.5340 15.08833370 46824,6917.901,95.438,541.345,538.186,0.0
51981.0,STARLINK-3635,PAYLOAD,2023-01-03 13:25:28,15.08834294,0.0002279999999999,53.2155,211.6282,43.3625,316.7547,0.00012405,1.686e-05,0.0,0 STARLINK-3635,1 51981U 22025AB  23003.55935795  .00001686  00000-0  12405-3 0  9997,2 51981  53.2155 211.6282 0002280  43.3625 316.7547 15.08834294 45763,6917.898,95.438,541.34,538.186,0.0
51981.0,STARLINK-3635,PAYLOAD,2023-01-04 06:54:43,15.08844065,0.0002381999999999,53.2149,208.3579,44.4263,315.692,0.00032199,4.841e-05,0.0,0 STARLINK-3635,1 51981U 22025AB  23004.28799829  .00004841  00000-0  32199-3 0  9992,2 51981  53.2149 208.3579 0002382  44.4263 315.6920 15.08844065 45873,6917.868,95.437,541.381,538.085,0.0
51981.0,STARLINK-3635,PAYLOAD,2023-01-04 19:37:47,15.08858794,0.0002419,53.2148,205.979,44.9065,315.2123,0.00044166,6.751e-05,0.0,0 STARLINK-3635,1 51981U 22025AB  23004.81791003  .00006751  00000-0  44166-3 0  9996,2 51981  53.2148 205.9790 0002419  44.9065 315.2123 15.08858794 47053,6917.823,95.436,541.361,538.015,0.0
51981.0,STARLINK-3635,PAYLOAD,2023-01-05 09:56:14,15.0888813,0.0002528999999999,53.2144,203.3023,48.6963,311.4247,0.00093258,0.00014605,0.0,0 STARLINK-3635,1 51981U 22025AB  23005.41405398  .00014605  00000-0  93258-3 0  9995,2 51981  53.2144 203.3023 0002529  48.6963 311.4247 15.08888130 47142,6917.733,95.435,541.3480000000002,537.849,0.0
51981.0,STARLINK-3635,PAYLOAD,2023-01-05 13:07:00,15.08886257,0.0002505999999999,53.2151,202.7084,45.12600000000001,314.9935,0.00065627,0.00010185,0.0,0 STARLINK-3635,1 51981U 22025AB  23005.54653085  .00010185  00000-0  65627-3 0  9995,2 51981  53.2151 202.7084 0002506  45.1260 314.9935 15.08886257 46067,6917.739000000001,95.435,541.3380000000002,537.87,0.0
51981.0,STARLINK-3635,PAYLOAD,2023-01-05 19:28:32,15.08864953,0.0002498,53.2132,201.5174,53.6389,306.4833,-0.00020553,-3.5600000000000005e-05,0.0,0 STARLINK-3635,1 51981U 22025AB  23005.81149096 -.00003560  00000-0 -20553-3 0  9997,2 51981  53.2132 201.5174 0002498  53.6389 306.4833 15.08864953 46106,6917.804,95.436,541.3969999999998,537.941,0.0
51981.0,STARLINK-3635,PAYLOAD,2023-01-06 09:47:01,15.08840994,0.0002311,53.215,198.8418,39.836,320.2801,-0.00011951,-2.19e-05,0.0,0 STARLINK-3635,1 51981U 22025AB  23006.40765309 -.00002190  00000-0 -11951-3 0  9994,2 51981  53.2150 198.8418 0002311  39.8360 320.2801 15.08840994 47293,6917.877,95.437,541.341,538.144,0.0
51981.0,STARLINK-3635,PAYLOAD,2023-01-06 22:30:07,15.08828814,0.0002309,53.2149,196.4632,41.7137,318.4031,0.00040776,6.205e-05,0.0,0 STARLINK-3635,1 51981U 22025AB  23006.93758125  .00006205  00000-0  40776-3 0  9996,2 51981  53.2149 196.4632 0002309  41.7137 318.4031 15.08828814 46272,6917.915,95.438,541.377,538.182,0.0
51981.0,STARLINK-3635,PAYLOAD,2023-01-07 19:10:08,15.08835,0.0002209,53.2153,192.5964,48.0419,312.0761,4.928e-05,4.96e-06,0.0,0 STARLINK-3635,1 51981U 22025AB  23007.79870475  .00000496  00000-0  49280-4 0  9990,2 51981  53.2153 192.5964 0002209  48.0419 312.0761 15.08835000 46404,6917.896,95.438,541.289,538.2330000000002,0.0
51981.0,STARLINK-3635,PAYLOAD,2023-01-08 12:39:22,15.08837383,0.0002155,53.2157,189.3256,46.6634,313.4537,0.00028637,4.272e-05,0.0,0 STARLINK-3635,1 51981U 22025AB  23008.52734803  .00004272  00000-0  28637-3 0  9994,2 51981  53.2157 189.3256 0002155  46.6634 313.4537 15.08837383 47615,6917.888000000001,95.438,541.244,538.263,0.0
51981.0,STARLINK-3635,PAYLOAD,2023-01-08 19:00:55,15.08843878,0.0002179,53.2155,188.1362,46.7913,313.326,0.00033802,5.096e-05,0.0,0 STARLINK-3635,1 51981U 22025AB  23008.79230662  .00005096  00000-0  33802-3 0  9992,2 51981  53.2155 188.1362 0002179  46.7913 313.3260 15.08843878 46555,6917.8690000000015,95.437,541.241,538.226,0.0
51981.0,STARLINK-3635,PAYLOAD,2023-01-09 10:54:46,15.08847839,0.0002184,53.2151,185.1635,48.9477,311.1703,0.00021534,3.141e-05,0.0,0 STARLINK-3635,1 51981U 22025AB  23009.45470317  .00003141  00000-0  21534-3 0  9997,2 51981  53.2151 185.1635 0002184  48.9477 311.1703 15.08847839 46656,6917.856,95.437,541.232,538.211,0.0
